[{
    "OBJECT_NAME": "STARLINK-6081",
    "OBJECT_ID": "2023-046R",
    "EPOCH": "2023-07-16T04:19:41.144448",
    "MEAN_MOTION": 15.02542317,
    "ECCENTRICITY": 0.0001296,
    "INCLINATION": 43.0024,
    "RA_OF_ASC_NODE": 16.108,
    "ARG_OF_PERICENTER": 265.6076,
    "MEAN_ANOMALY": 94.4619,
    "EPHEMERIS_TYPE": 0,
    "CLASSIFICATION_TYPE": "U",
    "NORAD_CAT_ID": 56108,
    "ELEMENT_SET_NO": 999,
    "REV_AT_EPOCH": 1706,
    "BSTAR": -0.00011449,
    "MEAN_MOTION_DOT": -1.75e-5,
    "MEAN_MOTION_DDOT": 0
},{
    "OBJECT_NAME": "STARLINK-6083",
    "OBJECT_ID": "2023-046S",
    "EPOCH": "2023-07-16T23:12:25.606656",
    "MEAN_MOTION": 15.0254738,
    "ECCENTRICITY": 0.0002055,
    "INCLINATION": 43.0046,
    "RA_OF_ASC_NODE": 11.6896,
    "ARG_OF_PERICENTER": 271.2553,
    "MEAN_ANOMALY": 88.8053,
    "EPHEMERIS_TYPE": 0,
    "CLASSIFICATION_TYPE": "U",
    "NORAD_CAT_ID": 56109,
    "ELEMENT_SET_NO": 999,
    "REV_AT_EPOCH": 1718,
    "BSTAR": 8.932e-5,
    "MEAN_MOTION_DOT": 1.003e-5,
    "MEAN_MOTION_DDOT": 0
},{
    "OBJECT_NAME": "STARLINK-6082",
    "OBJECT_ID": "2023-046T",
    "EPOCH": "2023-07-16T23:20:25.426464",
    "MEAN_MOTION": 15.02543954,
    "ECCENTRICITY": 0.0001591,
    "INCLINATION": 43.0042,
    "RA_OF_ASC_NODE": 11.7338,
    "ARG_OF_PERICENTER": 262.3482,
    "MEAN_ANOMALY": 97.718,
    "EPHEMERIS_TYPE": 0,
    "CLASSIFICATION_TYPE": "U",
    "NORAD_CAT_ID": 56110,
    "ELEMENT_SET_NO": 999,
    "REV_AT_EPOCH": 1718,
    "BSTAR": 0.00025775,
    "MEAN_MOTION_DOT": 3.28e-5,
    "MEAN_MOTION_DDOT": 0
},{
    "OBJECT_NAME": "STARLINK-6084",
    "OBJECT_ID": "2023-046U",
    "EPOCH": "2023-07-16T21:15:58.076640",
    "MEAN_MOTION": 15.02456629,
    "ECCENTRICITY": 5.33e-5,
    "INCLINATION": 43.0026,
    "RA_OF_ASC_NODE": 11.9414,
    "ARG_OF_PERICENTER": 264.4406,
    "MEAN_ANOMALY": 95.6376,
    "EPHEMERIS_TYPE": 0,
    "CLASSIFICATION_TYPE": "U",
    "NORAD_CAT_ID": 56111,
    "ELEMENT_SET_NO": 999,
    "REV_AT_EPOCH": 1717,
    "BSTAR": 0.0013328,
    "MEAN_MOTION_DOT": 0.00017808,
    "MEAN_MOTION_DDOT": 0
},{
    "OBJECT_NAME": "STARLINK-6080",
    "OBJECT_ID": "2023-046V",
    "EPOCH": "2023-07-16T18:12:28.185984",
    "MEAN_MOTION": 15.02533822,
    "ECCENTRICITY": 0.0001981,
    "INCLINATION": 43.0039,
    "RA_OF_ASC_NODE": 12.706,
    "ARG_OF_PERICENTER": 285.7732,
    "MEAN_ANOMALY": 74.2891,
    "EPHEMERIS_TYPE": 0,
    "CLASSIFICATION_TYPE": "U",
    "NORAD_CAT_ID": 56112,
    "ELEMENT_SET_NO": 999,
    "REV_AT_EPOCH": 1715,
    "BSTAR": 0.00018532,
    "MEAN_MOTION_DOT": 2.3e-5,
    "MEAN_MOTION_DDOT": 0
},{
    "OBJECT_NAME": "STARLINK-6113",
    "OBJECT_ID": "2023-046W",
    "EPOCH": "2023-07-16T17:59:40.877952",
    "MEAN_MOTION": 15.0253872,
    "ECCENTRICITY": 0.0001521,
    "INCLINATION": 43.0029,
    "RA_OF_ASC_NODE": 12.6415,
    "ARG_OF_PERICENTER": 278.8675,
    "MEAN_ANOMALY": 81.1995,
    "EPHEMERIS_TYPE": 0,
    "CLASSIFICATION_TYPE": "U",
    "NORAD_CAT_ID": 56113,
    "ELEMENT_SET_NO": 999,
    "REV_AT_EPOCH": 1715,
    "BSTAR": 1.7103e-5,
    "MEAN_MOTION_DOT": 2.7e-7,
    "MEAN_MOTION_DDOT": 0
},{
    "OBJECT_NAME": "STARLINK-6103",
    "OBJECT_ID": "2023-046X",
    "EPOCH": "2023-07-16T19:52:59.713824",
    "MEAN_MOTION": 15.02538519,
    "ECCENTRICITY": 0.0001478,
    "INCLINATION": 43.0038,
    "RA_OF_ASC_NODE": 12.3698,
    "ARG_OF_PERICENTER": 270.0589,
    "MEAN_ANOMALY": 90.0084,
    "EPHEMERIS_TYPE": 0,
    "CLASSIFICATION_TYPE": "U",
    "NORAD_CAT_ID": 56114,
    "ELEMENT_SET_NO": 999,
    "REV_AT_EPOCH": 1716,
    "BSTAR": -0.00012752,
    "MEAN_MOTION_DOT": -1.926e-5,
    "MEAN_MOTION_DDOT": 0
},{
    "OBJECT_NAME": "STARLINK-6101",
    "OBJECT_ID": "2023-046Y",
    "EPOCH": "2023-07-17T08:13:16.050432",
    "MEAN_MOTION": 15.02528953,
    "ECCENTRICITY": 0.0001291,
    "INCLINATION": 43.0031,
    "RA_OF_ASC_NODE": 9.3499,
    "ARG_OF_PERICENTER": 272.88,
    "MEAN_ANOMALY": 87.1894,
    "EPHEMERIS_TYPE": 0,
    "CLASSIFICATION_TYPE": "U",
    "NORAD_CAT_ID": 56115,
    "ELEMENT_SET_NO": 999,
    "REV_AT_EPOCH": 1724,
    "BSTAR": -2.5203e-6,
    "MEAN_MOTION_DOT": -2.38e-6,
    "MEAN_MOTION_DDOT": 0
},{
    "OBJECT_NAME": "STARLINK-6114",
    "OBJECT_ID": "2023-046Z",
    "EPOCH": "2023-07-16T21:19:08.558400",
    "MEAN_MOTION": 15.02493996,
    "ECCENTRICITY": 0.0001425,
    "INCLINATION": 43.0045,
    "RA_OF_ASC_NODE": 11.9599,
    "ARG_OF_PERICENTER": 263.3134,
    "MEAN_ANOMALY": 96.7546,
    "EPHEMERIS_TYPE": 0,
    "CLASSIFICATION_TYPE": "U",
    "NORAD_CAT_ID": 56116,
    "ELEMENT_SET_NO": 999,
    "REV_AT_EPOCH": 1717,
    "BSTAR": 0.00060619,
    "MEAN_MOTION_DOT": 7.985e-5,
    "MEAN_MOTION_DDOT": 0
},{
    "OBJECT_NAME": "STARLINK-6107",
    "OBJECT_ID": "2023-046AA",
    "EPOCH": "2023-07-16T03:35:28.836384",
    "MEAN_MOTION": 15.02533189,
    "ECCENTRICITY": 0.0001425,
    "INCLINATION": 43.0015,
    "RA_OF_ASC_NODE": 3.7609,
    "ARG_OF_PERICENTER": 273.4104,
    "MEAN_ANOMALY": 86.6575,
    "EPHEMERIS_TYPE": 0,
    "CLASSIFICATION_TYPE": "U",
    "NORAD_CAT_ID": 56117,
    "ELEMENT_SET_NO": 999,
    "REV_AT_EPOCH": 1720,
    "BSTAR": -2.2351e-5,
    "MEAN_MOTION_DOT": -5.06e-6,
    "MEAN_MOTION_DDOT": 0
},{
    "OBJECT_NAME": "STARLINK-6105",
    "OBJECT_ID": "2023-046AB",
    "EPOCH": "2023-07-17T08:18:02.359296",
    "MEAN_MOTION": 15.02528908,
    "ECCENTRICITY": 0.0001345,
    "INCLINATION": 43.0038,
    "RA_OF_ASC_NODE": 9.3701,
    "ARG_OF_PERICENTER": 269.3237,
    "MEAN_ANOMALY": 90.7452,
    "EPHEMERIS_TYPE": 0,
    "CLASSIFICATION_TYPE": "U",
    "NORAD_CAT_ID": 56118,
    "ELEMENT_SET_NO": 999,
    "REV_AT_EPOCH": 1724,
    "BSTAR": 0.00016534,
    "MEAN_MOTION_DOT": 2.03e-5,
    "MEAN_MOTION_DDOT": 0
},{
    "OBJECT_NAME": "STARLINK-6091",
    "OBJECT_ID": "2023-046AC",
    "EPOCH": "2023-07-16T19:21:34.514208",
    "MEAN_MOTION": 15.02534293,
    "ECCENTRICITY": 0.0001165,
    "INCLINATION": 43.0045,
    "RA_OF_ASC_NODE": 0.0914,
    "ARG_OF_PERICENTER": 259.2197,
    "MEAN_ANOMALY": 100.8514,
    "EPHEMERIS_TYPE": 0,
    "CLASSIFICATION_TYPE": "U",
    "NORAD_CAT_ID": 56119,
    "ELEMENT_SET_NO": 999,
    "REV_AT_EPOCH": 1730,
    "BSTAR": -5.6979e-5,
    "MEAN_MOTION_DOT": -9.73e-6,
    "MEAN_MOTION_DDOT": 0
},{
    "OBJECT_NAME": "STARLINK-6079",
    "OBJECT_ID": "2023-046AD",
    "EPOCH": "2023-07-17T09:57:30.777120",
    "MEAN_MOTION": 15.02528265,
    "ECCENTRICITY": 0.0001429,
    "INCLINATION": 43.0038,
    "RA_OF_ASC_NODE": 356.9144,
    "ARG_OF_PERICENTER": 269.3753,
    "MEAN_ANOMALY": 90.6926,
    "EPHEMERIS_TYPE": 0,
    "CLASSIFICATION_TYPE": "U",
    "NORAD_CAT_ID": 56120,
    "ELEMENT_SET_NO": 999,
    "REV_AT_EPOCH": 1739,
    "BSTAR": 7.2631e-6,
    "MEAN_MOTION_DOT": -1.06e-6,
    "MEAN_MOTION_DDOT": 0
},{
    "OBJECT_NAME": "STARLINK-6092",
    "OBJECT_ID": "2023-046AE",
    "EPOCH": "2023-07-16T21:00:29.585952",
    "MEAN_MOTION": 15.0254029,
    "ECCENTRICITY": 0.0001417,
    "INCLINATION": 43.004,
    "RA_OF_ASC_NODE": 359.7465,
    "ARG_OF_PERICENTER": 274.783,
    "MEAN_ANOMALY": 85.285,
    "EPHEMERIS_TYPE": 0,
    "CLASSIFICATION_TYPE": "U",
    "NORAD_CAT_ID": 56121,
    "ELEMENT_SET_NO": 999,
    "REV_AT_EPOCH": 1731,
    "BSTAR": -7.445e-5,
    "MEAN_MOTION_DOT": -1.209e-5,
    "MEAN_MOTION_DDOT": 0
}]
