STARLINK-6081
1 56108U 23046R   23197.18033732 -.00001750  00000+0 -11449-3 0  9990
2 56108  43.0024  16.1080 0001296 265.6076  94.4619 15.02542317 17068
STARLINK-6083
1 56109U 23046S   23197.96696304  .00001003  00000+0  89320-4 0  9990
2 56109  43.0046  11.6896 0002055 271.2553  88.8053 15.02547380 17182
STARLINK-6082
1 56110U 23046T   23197.97251651  .00003280  00000+0  25775-3 0  9997
2 56110  43.0042  11.7338 0001591 262.3482  97.7180 15.02543954 17181
STARLINK-6084
1 56111U 23046U   23197.88608885  .00017808  00000+0  13328-2 0  9994
2 56111  43.0026  11.9414 0000533 264.4406  95.6376 15.02456629 17170
STARLINK-6080
1 56112U 23046V   23197.75865956  .00002300  00000+0  18532-3 0  9999
2 56112  43.0039  12.7060 0001981 285.7732  74.2891 15.02533822 17151
STARLINK-6113
1 56113U 23046W   23197.74977868  .00000027  00000+0  17103-4 0  9993
2 56113  43.0029  12.6415 0001521 278.8675  81.1995 15.02538720 17157
STARLINK-6103
1 56114U 23046X   23197.82846891 -.00001926  00000+0 -12752-3 0  9999
2 56114  43.0038  12.3698 0001478 270.0589  90.0084 15.02538519 17162
STARLINK-6101
1 56115U 23046Y   23198.34254688 -.00000238  00000+0 -25203-5 0  9997
2 56115  43.0031   9.3499 0001291 272.8800  87.1894 15.02528953 17246
STARLINK-6114
1 56116U 23046Z   23197.88829350  .00007985  00000+0  60619-3 0  9992
2 56116  43.0045  11.9599 0001425 263.3134  96.7546 15.02493996 17176
STARLINK-6107
1 56117U 23046AA  23197.14963931 -.00000506  00000+0 -22351-4 0  9992
2 56117  43.0015   3.7609 0001425 273.4104  86.6575 15.02533189 17207
STARLINK-6105
1 56118U 23046AB  23198.34586064  .00002030  00000+0  16534-3 0  9991
2 56118  43.0038   9.3701 0001345 269.3237  90.7452 15.02528908 17247
STARLINK-6091
1 56119U 23046AC  23197.80664947 -.00000973  00000+0 -56979-4 0  9993
2 56119  43.0045   0.0914 0001165 259.2197 100.8514 15.02534293 17306
STARLINK-6079
1 56120U 23046AD  23198.41493955 -.00000106  00000+0  72631-5 0  9993
2 56120  43.0038 356.9144 0001429 269.3753  90.6926 15.02528265 17395
STARLINK-6092
1 56121U 23046AE  23197.87534243 -.00001209  00000+0 -74450-4 0  9995
2 56121  43.0040 359.7465 0001417 274.7830  85.2850 15.02540290 17319
